{"type": "FeatureCollection", "features": [ {"type": "Feature", "properties": {"norad_id": 30742, "name": "FENGYUN 1C DEB", "group": "fengyun-1c-debris", "lat": 9.977283037770256, "lon": -140.30022023629584, "alt_km": 818.2221019015487, "timestamp": "2025-12-19T18:58:41.866500+00:00", "meta": {"OBJECT_NAME": "FENGYUN 1C DEB", "OBJECT_ID": "1999-025ATC", "EPOCH": "2025-12-19T02:57:49.276800", "MEAN_MOTION": 14.10401464, "ECCENTRICITY": 0.00714648, "INCLINATION": 98.8677, "RA_OF_ASC_NODE": 37.468, "ARG_OF_PERICENTER": 208.9744, "MEAN_ANOMALY": 175.1323, "EPHEMERIS_TYPE": 0, "CLASSIFICATION_TYPE": "U", "NORAD_CAT_ID": 30742, "ELEMENT_SET_NO": 999, "REV_AT_EPOCH": 96132, "BSTAR": 0.0012543676, "MEAN_MOTION_DOT": 2.239e-05, "MEAN_MOTION_DDOT": 0}, "tle": {"line1": "1 30742U 99025ATC 25353.12348700  .00002239  00000+0  12544-2 0  9997", "line2": "2 30742  98.8677  37.4680 0071464 208.9744 175.1323 14.10401464961325"}}, "geometry": {"type": "Point", "coordinates": [-140.30022023629584, 9.977283037770256]}}, {"type": "Feature", "properties": {"norad_id": 30744, "name": "FENGYUN 1C DEB", "group": "fengyun-1c-debris", "lat": 28.167748451210134, "lon": -34.649954298891785, "alt_km": 598.4809998151786, "timestamp": "2025-12-19T18:58:41.866510+00:00", "meta": {"OBJECT_NAME": "FENGYUN 1C DEB", "OBJECT_ID": "1999-025ATE", "EPOCH": "2025-12-18T23:32:10.470336", "MEAN_MOTION": 14.90020987, "ECCENTRICITY": 0.00103418, "INCLINATION": 98.7308, "RA_OF_ASC_NODE": 139.7359, "ARG_OF_PERICENTER": 260.1535, "MEAN_ANOMALY": 228.4999, "EPHEMERIS_TYPE": 0, "CLASSIFICATION_TYPE": "U", "NORAD_CAT_ID": 30744, "ELEMENT_SET_NO": 999, "REV_AT_EPOCH": 98181, "BSTAR": 0.0034761765, "MEAN_MOTION_DOT": 0.00033657, "MEAN_MOTION_DDOT": 0}, "tle": {"line1": "1 30744U 99025ATE 25352.98067674  .00033657  00000+0  34762-2 0  9994", "line2": "2 30744  98.7308 139.7359 0010341 260.1535 228.4999 14.90020987981813"}}, "geometry": {"type": "Point", "coordinates": [-34.649954298891785, 28.167748451210134]}}, {"type": "Feature", "properties": {"norad_id": 30746, "name": "FENGYUN 1C DEB", "group": "fengyun-1c-debris", "lat": -39.406211858663234, "lon": -12.891947583843153, "alt_km": 799.3193756064084, "timestamp": "2025-12-19T18:58:41.866520+00:00", "meta": {"OBJECT_NAME": "FENGYUN 1C DEB", "OBJECT_ID": "1999-025ATG", "EPOCH": "2025-12-19T04:46:47.889696", "MEAN_MOTION": 14.27528936, "ECCENTRICITY": 0.00460743, "INCLINATION": 99.0573, "RA_OF_ASC_NODE": 174.0258, "ARG_OF_PERICENTER": 299.4605, "MEAN_ANOMALY": 122.3907, "EPHEMERIS_TYPE": 0, "CLASSIFICATION_TYPE": "U", "NORAD_CAT_ID": 30746, "ELEMENT_SET_NO": 999, "REV_AT_EPOCH": 97538, "BSTAR": 0.00034478913, "MEAN_MOTION_DOT": 8.09e-06, "MEAN_MOTION_DDOT": 0}, "tle": {"line1": "1 30746U 99025ATG 25353.19916539  .00000809  00000+0  34479-3 0  9992", "line2": "2 30746  99.0573 174.0258 0046074 299.4605 122.3907 14.27528936975381"}}, "geometry": {"type": "Point", "coordinates": [-12.891947583843153, -39.406211858663234]}}, {"type": "Feature", "properties": {"norad_id": 30749, "name": "FENGYUN 1C DEB", "group": "fengyun-1c-debris", "lat": -55.100059140267255, "lon": -172.56698123753708, "alt_km": 863.9435926654478, "timestamp": "2025-12-19T18:58:41.866530+00:00", "meta": {"OBJECT_NAME": "FENGYUN 1C DEB", "OBJECT_ID": "1999-025ATK", "EPOCH": "2025-12-19T00:41:57.404832", "MEAN_MOTION": 13.99838705, "ECCENTRICITY": 0.00558914, "INCLINATION": 98.8865, "RA_OF_ASC_NODE": 19.6534, "ARG_OF_PERICENTER": 214.9289, "MEAN_ANOMALY": 144.8204, "EPHEMERIS_TYPE": 0, "CLASSIFICATION_TYPE": "U", "NORAD_CAT_ID": 30749, "ELEMENT_SET_NO": 999, "REV_AT_EPOCH": 96054, "BSTAR": 9.904277e-06, "MEAN_MOTION_DOT": -2.8e-07, "MEAN_MOTION_DDOT": 0}, "tle": {"line1": "1 30749U 99025ATK 25353.02913663 -.00000028  00000+0  99043-5 0  9996", "line2": "2 30749  98.8865  19.6534 0055891 214.9289 144.8204 13.99838705960540"}}, "geometry": {"type": "Point", "coordinates": [-172.56698123753708, -55.100059140267255]}}, {"type": "Feature", "properties": {"norad_id": 30750, "name": "FENGYUN 1C DEB", "group": "fengyun-1c-debris", "lat": 25.4620435879488, "lon": -107.21669011587623, "alt_km": 787.5104588140075, "timestamp": "2025-12-19T18:58:41.866540+00:00", "meta": {"OBJECT_NAME": "FENGYUN 1C DEB", "OBJECT_ID": "1999-025ATL", "EPOCH": "2025-12-19T05:06:21.257856", "MEAN_MOTION": 14.28657232, "ECCENTRICITY": 0.00399927, "INCLINATION": 98.9198, "RA_OF_ASC_NODE": 67.9039, "ARG_OF_PERICENTER": 81.4076, "MEAN_ANOMALY": 341.0935, "EPHEMERIS_TYPE": 0, "CLASSIFICATION_TYPE": "U", "NORAD_CAT_ID": 30750, "ELEMENT_SET_NO": 999, "REV_AT_EPOCH": 96874, "BSTAR": 0.0012465788, "MEAN_MOTION_DOT": 3.114e-05, "MEAN_MOTION_DDOT": 0}, "tle": {"line1": "1 30750U 99025ATL 25353.21274604  .00003114  00000+0  12466-2 0  9993", "line2": "2 30750  98.9198  67.9039 0039992  81.4076 341.0935 14.28657232968742"}}, "geometry": {"type": "Point", "coordinates": [-107.21669011587623, 25.4620435879488]}}, {"type": "Feature", "properties": {"norad_id": 30751, "name": "FENGYUN 1C DEB", "group": "fengyun-1c-debris", "lat": -80.32953406845164, "lon": 166.76288659920274, "alt_km": 885.6820969666014, "timestamp": "2025-12-19T18:58:41.866551+00:00", "meta": {"OBJECT_NAME": "FENGYUN 1C DEB", "OBJECT_ID": "1999-025ATM", "EPOCH": "2025-12-19T02:35:44.656800", "MEAN_MOTION": 14.15234958, "ECCENTRICITY": 0.00517681, "INCLINATION": 98.8548, "RA_OF_ASC_NODE": 52.2645, "ARG_OF_PERICENTER": 78.491, "MEAN_ANOMALY": 311.8722, "EPHEMERIS_TYPE": 0, "CLASSIFICATION_TYPE": "U", "NORAD_CAT_ID": 30751, "ELEMENT_SET_NO": 999, "REV_AT_EPOCH": 96366, "BSTAR": 0.0011823514, "MEAN_MOTION_DOT": 2.285e-05, "MEAN_MOTION_DDOT": 0}, "tle": {"line1": "1 30751U 99025ATM 25353.10815575  .00002285  00000+0  11824-2 0  9995", "line2": "2 30751  98.8548  52.2645 0051768  78.4910 311.8722 14.15234958963666"}}, "geometry": {"type": "Point", "coordinates": [166.76288659920274, -80.32953406845164]}}, {"type": "Feature", "properties": {"norad_id": 30753, "name": "FENGYUN 1C DEB", "group": "fengyun-1c-debris", "lat": 2.472834888184599, "lon": 31.88035073129651, "alt_km": 817.478636493137, "timestamp": "2025-12-19T18:58:41.866561+00:00", "meta": {"OBJECT_NAME": "FENGYUN 1C DEB", "OBJECT_ID": "1999-025ATP", "EPOCH": "2025-12-18T19:10:07.429440", "MEAN_MOTION": 14.12669845, "ECCENTRICITY": 0.00551918, "INCLINATION": 98.8068, "RA_OF_ASC_NODE": 31.2887, "ARG_OF_PERICENTER": 337.6016, "MEAN_ANOMALY": 22.2747, "EPHEMERIS_TYPE": 0, "CLASSIFICATION_TYPE": "U", "NORAD_CAT_ID": 30753, "ELEMENT_SET_NO": 999, "REV_AT_EPOCH": 96437, "BSTAR": 0.00087426088, "MEAN_MOTION_DOT": 1.6e-05, "MEAN_MOTION_DDOT": 0}, "tle": {"line1": "1 30753U 99025ATP 25352.79869710  .00001600  00000+0  87426-3 0  9993", "line2": "2 30753  98.8068  31.2887 0055191 337.6016  22.2747 14.12669845964374"}}, "geometry": {"type": "Point", "coordinates": [31.88035073129651, 2.472834888184599]}}, {"type": "Feature", "properties": {"norad_id": 30755, "name": "FENGYUN 1C DEB", "group": "fengyun-1c-debris", "lat": -41.20551116756131, "lon": 160.85650216658138, "alt_km": 651.7164162654362, "timestamp": "2025-12-19T18:58:41.866571+00:00", "meta": {"OBJECT_NAME": "FENGYUN 1C DEB", "OBJECT_ID": "1999-025ATR", "EPOCH": "2025-12-18T11:05:25.444320", "MEAN_MOTION": 14.44979682, "ECCENTRICITY": 0.01508, "INCLINATION": 98.258, "RA_OF_ASC_NODE": 346.8701, "ARG_OF_PERICENTER": 251.5668, "MEAN_ANOMALY": 263.2421, "EPHEMERIS_TYPE": 0, "CLASSIFICATION_TYPE": "U", "NORAD_CAT_ID": 30755, "ELEMENT_SET_NO": 999, "REV_AT_EPOCH": 98527, "BSTAR": 0.0004596202, "MEAN_MOTION_DOT": 1.793e-05, "MEAN_MOTION_DDOT": 0}, "tle": {"line1": "1 30755U 99025ATR 25352.46210005  .00001793  00000+0  45962-3 0  9998", "line2": "2 30755  98.2580 346.8701 0150800 251.5668 263.2421 14.44979682985275"}}, "geometry": {"type": "Point", "coordinates": [160.85650216658138, -41.20551116756131]}}, {"type": "Feature", "properties": {"norad_id": 30756, "name": "FENGYUN 1C DEB", "group": "fengyun-1c-debris", "lat": -57.094907206517675, "lon": -132.87359000228486, "alt_km": 810.2141001734981, "timestamp": "2025-12-19T18:58:41.866581+00:00", "meta": {"OBJECT_NAME": "FENGYUN 1C DEB", "OBJECT_ID": "1999-025ATS", "EPOCH": "2025-12-19T04:36:36.409248", "MEAN_MOTION": 14.18312364, "ECCENTRICITY": 0.00715018, "INCLINATION": 98.991, "RA_OF_ASC_NODE": 60.6832, "ARG_OF_PERICENTER": 297.4614, "MEAN_ANOMALY": 126.2927, "EPHEMERIS_TYPE": 0, "CLASSIFICATION_TYPE": "U", "NORAD_CAT_ID": 30756, "ELEMENT_SET_NO": 999, "REV_AT_EPOCH": 96496, "BSTAR": 0.0011061113, "MEAN_MOTION_DOT": 2.291e-05, "MEAN_MOTION_DDOT": 0}, "tle": {"line1": "1 30756U 99025ATS 25353.19208807  .00002291  00000+0  11061-2 0  9993", "line2": "2 30756  98.9910  60.6832 0071501 297.4614 126.2927 14.18312364964967"}}, "geometry": {"type": "Point", "coordinates": [-132.87359000228486, -57.094907206517675]}}, {"type": "Feature", "properties": {"norad_id": 30758, "name": "FENGYUN 1C DEB", "group": "fengyun-1c-debris", "lat": -60.46020585519719, "lon": -83.69031253834174, "alt_km": 847.3595384874252, "timestamp": "2025-12-19T18:58:41.866596+00:00", "meta": {"OBJECT_NAME": "FENGYUN 1C DEB", "OBJECT_ID": "1999-025ATU", "EPOCH": "2025-12-18T01:25:53.327136", "MEAN_MOTION": 14.17131159, "ECCENTRICITY": 0.00384032, "INCLINATION": 99.0185, "RA_OF_ASC_NODE": 110.8298, "ARG_OF_PERICENTER": 347.6484, "MEAN_ANOMALY": 67.7822, "EPHEMERIS_TYPE": 0, "CLASSIFICATION_TYPE": "U", "NORAD_CAT_ID": 30758, "ELEMENT_SET_NO": 999, "REV_AT_EPOCH": 96566, "BSTAR": 0.0008333481, "MEAN_MOTION_DOT": 1.645e-05, "MEAN_MOTION_DDOT": 0}, "tle": {"line1": "1 30758U 99025ATU 25352.05964499  .00001645  00000+0  83335-3 0  9991", "line2": "2 30758  99.0185 110.8298 0038403 347.6484  67.7822 14.17131159965667"}}, "geometry": {"type": "Point", "coordinates": [-83.69031253834174, -60.46020585519719]}}]}